{"fetched_at":"2026-03-30T06:02:59Z","count":15439,"tles":[{"name":"STARLINK-34724","line1":"1 66442U 25259W   26087.89651070  .00019968  00000+0  73241-3 0  9996","line2":"2 66442  43.0000 166.3098 0002751 278.2402  81.8138 15.27612209 22428","category":"Starlink"}]}