{
  "norad_id": 66442,
  "name": "STARLINK-34724",
  "history": [
    {
      "epoch": "2026-03-28T21:30:58.524480Z",
      "apogee_km": 484.8401381644944,
      "perigee_km": 481.06516663774255,
      "latitude_deg": 2.935973079571624e-05,
      "longitude_deg": 17.25560211765107,
      "height_km": 482.45984129300103,
      "semi_major_axis_km": 6861.089652401118,
      "eccentricity": 0.0002751,
      "inclination_deg": 43.0,
      "raan_deg": 166.3098,
      "arg_perigee_deg": 278.2402,
      "mean_anomaly_deg": 81.8138,
      "mean_motion_rev_day": 15.27612209
    }
  ]
}